OBJECT_NAME,OBJECT_ID,EPOCH,MEAN_MOTION,ECCENTRICITY,INCLINATION,RA_OF_ASC_NODE,ARG_OF_PERICENTER,MEAN_ANOMALY,EPHEMERIS_TYPE,CLASSIFICATION_TYPE,NORAD_CAT_ID,ELEMENT_SET_NO,REV_AT_EPOCH,BSTAR,MEAN_MOTION_DOT,MEAN_MOTION_DDOT
FENGYUN 3D,2017-072A,2026-06-04T06:00:39.831264,14.19737214,.00026211,99.0123,129.4395,83.0983,277.0490,0,U,43010,999,44315,.98707457E-4,.163E-5,0
NOAA 20 (JPSS-1),2017-073A,2026-06-04T05:50:20.234400,14.19509254,.00006432,98.7770,94.8211,36.5231,323.5989,0,U,43013,999,44263,.55170831E-4,.72E-6,0
GOES 17,2018-022A,2026-06-04T04:22:38.760384,1.00271727,.00007596,0.9045,85.9525,5.2372,137.6159,0,U,43226,999,3029,0,-.171E-5,0
SENTINEL-3B,2018-039A,2026-06-04T01:48:36.433152,14.26737956,.00009832,98.6250,222.7952,75.0166,285.1124,0,U,43437,999,42225,.78971101E-4,.147E-5,0
FENGYUN 2H,2018-050A,2026-06-04T01:57:44.352576,1.00272036,.00014221,2.9979,79.2237,127.7453,154.4556,0,U,43491,999,2930,0,-.12E-5,0
METOP-C,2018-087A,2026-06-04T06:10:50.139264,14.21508602,.0001254,98.6649,215.0969,143.7047,216.4216,0,U,43689,999,39299,.83650293E-4,.14E-5,0
GEO-KOMPSAT-2A,2018-100A,2026-06-03T17:38:21.458976,1.00270341,.0002341,0.0517,140.6437,302.9772,201.4258,0,U,43823,999,2749,0,-.332E-5,0
METEOR-M2 2,2019-038A,2026-06-04T05:58:43.808160,14.24361675,.00023512,98.9140,142.3442,67.5671,292.5756,0,U,44387,999,35945,-.1821873E-4,-.88E-6,0
ARKTIKA-M 1,2021-016A,2026-06-02T00:56:25.095840,2.00628509,.72832396,63.2379,59.8266,269.8643,14.6915,0,U,47719,999,3848,0,-.2E-5,0
FENGYUN 3E,2021-062A,2026-06-04T05:39:30.985056,14.19902051,.00026439,98.7488,158.7881,106.6735,253.4732,0,U,49008,999,25474,-.11492668E-3,-.288E-5,0
GOES 18,2022-021A,2026-06-04T07:05:38.635584,1.00271619,.00006086,0.0400,136.7643,342.8871,102.5033,0,U,51850,999,646,0,.109E-5,0
NOAA 21 (JPSS-2),2022-150A,2026-06-04T04:56:53.932992,14.19563098,.00009164,98.7058,94.2135,188.3538,171.7623,0,U,54234,999,18470,.64119908E-4,.92E-6,0
METEOSAT-12 (MTG-I1),2022-170C,2026-06-04T05:00:15.059232,1.00271394,.00035924,0.7239,20.7612,69.3015,237.2366,0,U,54743,999,1284,0,.3E-7,0
TIANMU-1 03,2023-039A,2026-06-04T05:50:53.503584,15.46898799,.00040312,97.5232,328.7101,130.5956,229.5645,0,U,55973,999,17883,.33827243E-3,.16942E-3,0
TIANMU-1 04,2023-039B,2026-06-04T05:42:51.359616,15.47482156,.00047441,97.5168,327.8574,128.6895,231.4780,0,U,55974,999,17884,.33826802E-3,.1729E-3,0
TIANMU-1 05,2023-039C,2026-06-04T06:55:27.590592,15.46829556,.00035544,97.5215,328.3763,146.3600,213.7875,0,U,55975,999,17882,.33648064E-3,.1681E-3,0
TIANMU-1 06,2023-039D,2026-06-04T05:46:35.651424,15.47391670,.00039462,97.5221,328.9496,142.3704,217.7823,0,U,55976,999,17884,.33742153E-3,.1719E-3,0
FENGYUN 3G,2023-055A,2026-06-04T04:12:08.018784,15.54192632,.00055215,49.9933,53.1231,143.8334,216.3008,0,U,56232,999,17798,.43211664E-3,.28355E-3,0
METEOR-M2 3,2023-091A,2026-06-04T07:27:26.924256,14.24045730,.00036049,98.6087,210.5519,190.8261,169.2841,0,U,57166,999,15268,.28372951E-4,.22E-6,0
TIANMU-1 07,2023-101A,2026-06-04T05:07:45.808896,15.29650384,.00032284,97.2593,206.1811,148.7429,211.4005,0,U,57399,999,15966,.26026995E-3,.7405E-4,0
TIANMU-1 08,2023-101B,2026-06-04T04:19:46.787232,15.29655274,.00048437,97.2582,205.9211,147.6879,212.4660,0,U,57400,999,15965,.25401113E-3,.7227E-4,0
TIANMU-1 09,2023-101C,2026-06-04T07:04:38.650656,15.29683056,.0003601,97.2540,205.4554,157.1524,202.9878,0,U,57401,999,15967,.26976824E-3,.7686E-4,0
TIANMU-1 10,2023-101D,2026-06-04T04:43:29.434944,15.29652421,.00051627,97.2620,206.3969,161.7414,198.4013,0,U,57402,999,15965,.25488968E-3,.7252E-4,0
FENGYUN 3F,2023-111A,2026-06-04T06:58:15.479616,14.19936874,.00015589,98.6837,225.5391,102.7562,257.3789,0,U,57490,999,14703,.59316968E-4,.83E-6,0
ARKTIKA-M 2,2023-198A,2026-06-01T19:23:46.713120,2.00592153,.68981271,63.2208,156.0807,267.4735,18.7853,0,U,58584,999,1801,0,.145E-5,0
TIANMU-1 11,2023-205A,2026-06-04T06:35:21.208992,15.26855165,.00103359,97.3448,177.0353,57.9621,302.2621,0,U,58645,999,13555,.26062523E-3,.6814E-4,0
TIANMU-1 12,2023-205B,2026-06-04T05:52:13.069344,15.26815651,.00082308,97.3436,176.7642,45.7982,314.3932,0,U,58646,999,13553,.25850408E-3,.6746E-4,0
TIANMU-1 13,2023-205C,2026-06-04T06:36:47.138976,15.26670558,.00074932,97.3464,177.0652,27.7238,332.4399,0,U,58647,999,13553,.26616482E-3,.6916E-4,0
TIANMU-1 14,2023-205D,2026-06-04T06:16:01.566336,15.26715471,.00084983,97.3401,176.2430,30.9067,329.2671,0,U,58648,999,13553,.26287983E-3,.6841E-4,0
TIANMU-1 19,2023-208A,2026-06-04T06:49:49.911744,15.31369926,.00049485,97.4498,271.5216,19.4611,340.6818,0,U,58660,999,13535,.31574796E-3,.9493E-4,0
