FENGYUN 3D              
1 43010U 17072A   26155.25046101  .00000163  00000+0  98707-4 0  9997
2 43010  99.0123 129.4395 0002621  83.0983 277.0490 14.19737214443154
NOAA 20 (JPSS-1)        
1 43013U 17073A   26155.24328975  .00000072  00000+0  55171-4 0  9999
2 43013  98.7770  94.8211 0000643  36.5231 323.5989 14.19509254442637
GOES 17                 
1 43226U 18022A   26155.18239306 -.00000171  00000+0  00000+0 0  9999
2 43226   0.9045  85.9525 0000759   5.2372 137.6159  1.00271727 30294
SENTINEL-3B             
1 43437U 18039A   26155.07542168  .00000147  00000+0  78971-4 0  9991
2 43437  98.6250 222.7952 0000983  75.0166 285.1124 14.26737956422255
FENGYUN 2H              
1 43491U 18050A   26155.08176334 -.00000120  00000+0  00000+0 0  9998
2 43491   2.9979  79.2237 0001422 127.7453 154.4556  1.00272036 29302
METOP-C                 
1 43689U 18087A   26155.25752476  .00000140  00000+0  83650-4 0  9991
2 43689  98.6649 215.0969 0001254 143.7047 216.4216 14.21508602392997
GEO-KOMPSAT-2A          
1 43823U 18100A   26154.73497059 -.00000332  00000+0  00000+0 0  9999
2 43823   0.0517 140.6437 0002341 302.9772 201.4258  1.00270341 27492
METEOR-M2 2             
1 44387U 19038A   26155.24911815 -.00000088  00000+0 -18219-4 0  9999
2 44387  98.9140 142.3442 0002351  67.5671 292.5756 14.24361675359453
ARKTIKA-M 1             
1 47719U 21016A   26153.03917935 -.00000200  00000+0  00000+0 0  9993
2 47719  63.2379  59.8266 7283239 269.8643  14.6915  2.00628509 38489
FENGYUN 3E              
1 49008U 21062A   26155.23577529 -.00000288  00000+0 -11493-3 0  9991
2 49008  98.7488 158.7881 0002643 106.6735 253.4732 14.19902051254748
GOES 18                 
1 51850U 22021A   26155.29558606  .00000109  00000+0  00000+0 0  9994
2 51850   0.0400 136.7643 0000608 342.8871 102.5033  1.00271619  6469
NOAA 21 (JPSS-2)        
1 54234U 22150A   26155.20617978  .00000092  00000+0  64120-4 0  9994
2 54234  98.7058  94.2135 0000916 188.3538 171.7623 14.19563098184706
METEOSAT-12 (MTG-I1)    
1 54743U 22170C   26155.20850763  .00000003  00000+0  00000+0 0  9996
2 54743   0.7239  20.7612 0003592  69.3015 237.2366  1.00271394 12848
TIANMU-1 03             
1 55973U 23039A   26155.24367481  .00016942  00000+0  33827-3 0  9997
2 55973  97.5232 328.7101 0004031 130.5956 229.5645 15.46898799178834
TIANMU-1 04             
1 55974U 23039B   26155.23809444  .00017290  00000+0  33827-3 0  9994
2 55974  97.5168 327.8574 0004744 128.6895 231.4780 15.47482156178848
TIANMU-1 05             
1 55975U 23039C   26155.28851378  .00016810  00000+0  33648-3 0  9991
2 55975  97.5215 328.3763 0003554 146.3600 213.7875 15.46829556178821
TIANMU-1 06             
1 55976U 23039D   26155.24069041  .00017190  00000+0  33742-3 0  9993
2 55976  97.5221 328.9496 0003946 142.3704 217.7823 15.47391670178845
FENGYUN 3G              
1 56232U 23055A   26155.17509281  .00028355  00000+0  43212-3 0  9992
2 56232  49.9933  53.1231 0005521 143.8334 216.3008 15.54192632177981
METEOR-M2 3             
1 57166U 23091A   26155.31072829  .00000022  00000+0  28373-4 0  9991
2 57166  98.6087 210.5519 0003604 190.8261 169.2841 14.24045730152681
TIANMU-1 07             
1 57399U 23101A   26155.21372464  .00007405  00000+0  26027-3 0  9993
2 57399  97.2593 206.1811 0003228 148.7429 211.4005 15.29650384159662
TIANMU-1 08             
1 57400U 23101B   26155.18040263  .00007227  00000+0  25401-3 0  9998
2 57400  97.2582 205.9211 0004843 147.6879 212.4660 15.29655274159655
TIANMU-1 09             
1 57401U 23101C   26155.29489179  .00007686  00000+0  26977-3 0  9992
2 57401  97.2540 205.4554 0003601 157.1524 202.9878 15.29683056159675
TIANMU-1 10             
1 57402U 23101D   26155.19686846  .00007252  00000+0  25489-3 0  9998
2 57402  97.2620 206.3969 0005162 161.7414 198.4013 15.29652421159658
FENGYUN 3F              
1 57490U 23111A   26155.29045694  .00000083  00000+0  59317-4 0  9990
2 57490  98.6837 225.5391 0001558 102.7562 257.3789 14.19936874147035
ARKTIKA-M 2             
1 58584U 23198A   26152.80817955  .00000145  00000+0  00000+0 0  9990
2 58584  63.2208 156.0807 6898127 267.4735  18.7853  2.00592153 18014
TIANMU-1 11             
1 58645U 23205A   26155.27455103  .00006814  00000+0  26063-3 0  9994
2 58645  97.3448 177.0353 0010335  57.9621 302.2621 15.26855165135552
TIANMU-1 12             
1 58646U 23205B   26155.24459571  .00006746  00000+0  25850-3 0  9992
2 58646  97.3436 176.7642 0008230  45.7982 314.3932 15.26815651135536
TIANMU-1 13             
1 58647U 23205C   26155.27554559  .00006916  00000+0  26616-3 0  9998
2 58647  97.3464 177.0652 0007493  27.7238 332.4399 15.26670558135530
TIANMU-1 14             
1 58648U 23205D   26155.26112924  .00006841  00000+0  26288-3 0  9996
2 58648  97.3401 176.2430 0008498  30.9067 329.2671 15.26715471135530
TIANMU-1 19             
1 58660U 23208A   26155.28460546  .00009493  00000+0  31575-3 0  9992
2 58660  97.4498 271.5216 0004948  19.4611 340.6818 15.31369926135351
